<?xml version="1.0" encoding="UTF-8"?>
<ndm xmlns:xsi="http://www.w3.org/2001/XMLSchema-instance" xsi:noNamespaceSchemaLocation="https://sanaregistry.org/r/ndmxml_unqualified/ndmxml-2.0.0-master-2.0.xsd">
<omm id="CCSDS_OMM_VERS" version="2.0">
<header><CREATION_DATE/><ORIGINATOR/></header><body><segment><metadata><OBJECT_NAME>KUIPER-00136</OBJECT_NAME><OBJECT_ID>2025-228R</OBJECT_ID><CENTER_NAME>EARTH</CENTER_NAME><REF_FRAME>TEME</REF_FRAME><TIME_SYSTEM>UTC</TIME_SYSTEM><MEAN_ELEMENT_THEORY>SGP4</MEAN_ELEMENT_THEORY></metadata><data><meanElements><EPOCH>2025-11-29T01:00:15.219648</EPOCH><MEAN_MOTION>15.35816322</MEAN_MOTION><ECCENTRICITY>.0006454</ECCENTRICITY><INCLINATION>51.8805</INCLINATION><RA_OF_ASC_NODE>86.4991</RA_OF_ASC_NODE><ARG_OF_PERICENTER>303.5220</ARG_OF_PERICENTER><MEAN_ANOMALY>56.5150</MEAN_ANOMALY></meanElements><tleParameters><EPHEMERIS_TYPE>0</EPHEMERIS_TYPE><CLASSIFICATION_TYPE>U</CLASSIFICATION_TYPE><NORAD_CAT_ID>65962</NORAD_CAT_ID><ELEMENT_SET_NO>999</ELEMENT_SET_NO><REV_AT_EPOCH>831</REV_AT_EPOCH><BSTAR>.12541E-2</BSTAR><MEAN_MOTION_DOT>.44276E-3</MEAN_MOTION_DOT><MEAN_MOTION_DDOT>0</MEAN_MOTION_DDOT></tleParameters></data></segment></body></omm>
<omm id="CCSDS_OMM_VERS" version="2.0">
<header><CREATION_DATE/><ORIGINATOR/></header><body><segment><metadata><OBJECT_NAME>KUIPER-00137</OBJECT_NAME><OBJECT_ID>2025-228S</OBJECT_ID><CENTER_NAME>EARTH</CENTER_NAME><REF_FRAME>TEME</REF_FRAME><TIME_SYSTEM>UTC</TIME_SYSTEM><MEAN_ELEMENT_THEORY>SGP4</MEAN_ELEMENT_THEORY></metadata><data><meanElements><EPOCH>2025-11-29T01:19:14.547936</EPOCH><MEAN_MOTION>15.35143168</MEAN_MOTION><ECCENTRICITY>.0005668</ECCENTRICITY><INCLINATION>51.8788</INCLINATION><RA_OF_ASC_NODE>86.5857</RA_OF_ASC_NODE><ARG_OF_PERICENTER>327.7981</ARG_OF_PERICENTER><MEAN_ANOMALY>32.2658</MEAN_ANOMALY></meanElements><tleParameters><EPHEMERIS_TYPE>0</EPHEMERIS_TYPE><CLASSIFICATION_TYPE>U</CLASSIFICATION_TYPE><NORAD_CAT_ID>65963</NORAD_CAT_ID><ELEMENT_SET_NO>999</ELEMENT_SET_NO><REV_AT_EPOCH>831</REV_AT_EPOCH><BSTAR>.91112E-3</BSTAR><MEAN_MOTION_DOT>.31314E-3</MEAN_MOTION_DOT><MEAN_MOTION_DDOT>0</MEAN_MOTION_DDOT></tleParameters></data></segment></body></omm>
<omm id="CCSDS_OMM_VERS" version="2.0">
<header><CREATION_DATE/><ORIGINATOR/></header><body><segment><metadata><OBJECT_NAME>KUIPER-00138</OBJECT_NAME><OBJECT_ID>2025-228T</OBJECT_ID><CENTER_NAME>EARTH</CENTER_NAME><REF_FRAME>TEME</REF_FRAME><TIME_SYSTEM>UTC</TIME_SYSTEM><MEAN_ELEMENT_THEORY>SGP4</MEAN_ELEMENT_THEORY></metadata><data><meanElements><EPOCH>2025-11-29T01:24:50.480640</EPOCH><MEAN_MOTION>15.35189246</MEAN_MOTION><ECCENTRICITY>.0007455</ECCENTRICITY><INCLINATION>51.8787</INCLINATION><RA_OF_ASC_NODE>86.6033</RA_OF_ASC_NODE><ARG_OF_PERICENTER>326.1794</ARG_OF_PERICENTER><MEAN_ANOMALY>33.8715</MEAN_ANOMALY></meanElements><tleParameters><EPHEMERIS_TYPE>0</EPHEMERIS_TYPE><CLASSIFICATION_TYPE>U</CLASSIFICATION_TYPE><NORAD_CAT_ID>65964</NORAD_CAT_ID><ELEMENT_SET_NO>999</ELEMENT_SET_NO><REV_AT_EPOCH>831</REV_AT_EPOCH><BSTAR>.13411E-2</BSTAR><MEAN_MOTION_DOT>.46449E-3</MEAN_MOTION_DOT><MEAN_MOTION_DDOT>0</MEAN_MOTION_DDOT></tleParameters></data></segment></body></omm>
<omm id="CCSDS_OMM_VERS" version="2.0">
<header><CREATION_DATE/><ORIGINATOR/></header><body><segment><metadata><OBJECT_NAME>KUIPER-00140</OBJECT_NAME><OBJECT_ID>2025-228U</OBJECT_ID><CENTER_NAME>EARTH</CENTER_NAME><REF_FRAME>TEME</REF_FRAME><TIME_SYSTEM>UTC</TIME_SYSTEM><MEAN_ELEMENT_THEORY>SGP4</MEAN_ELEMENT_THEORY></metadata><data><meanElements><EPOCH>2025-11-28T14:34:07.698720</EPOCH><MEAN_MOTION>15.34648146</MEAN_MOTION><ECCENTRICITY>.00069043</ECCENTRICITY><INCLINATION>51.8795</INCLINATION><RA_OF_ASC_NODE>88.8291</RA_OF_ASC_NODE><ARG_OF_PERICENTER>324.7976</ARG_OF_PERICENTER><MEAN_ANOMALY>35.2553</MEAN_ANOMALY></meanElements><tleParameters><EPHEMERIS_TYPE>0</EPHEMERIS_TYPE><CLASSIFICATION_TYPE>U</CLASSIFICATION_TYPE><NORAD_CAT_ID>65965</NORAD_CAT_ID><ELEMENT_SET_NO>999</ELEMENT_SET_NO><REV_AT_EPOCH>824</REV_AT_EPOCH><BSTAR>.12289078E-2</BSTAR><MEAN_MOTION_DOT>.4177E-3</MEAN_MOTION_DOT><MEAN_MOTION_DDOT>0</MEAN_MOTION_DDOT></tleParameters></data></segment></body></omm>
<omm id="CCSDS_OMM_VERS" version="2.0">
<header><CREATION_DATE/><ORIGINATOR/></header><body><segment><metadata><OBJECT_NAME>KUIPER-00141</OBJECT_NAME><OBJECT_ID>2025-228V</OBJECT_ID><CENTER_NAME>EARTH</CENTER_NAME><REF_FRAME>TEME</REF_FRAME><TIME_SYSTEM>UTC</TIME_SYSTEM><MEAN_ELEMENT_THEORY>SGP4</MEAN_ELEMENT_THEORY></metadata><data><meanElements><EPOCH>2025-11-29T01:05:31.363296</EPOCH><MEAN_MOTION>15.35750074</MEAN_MOTION><ECCENTRICITY>.0005906</ECCENTRICITY><INCLINATION>51.8793</INCLINATION><RA_OF_ASC_NODE>86.5148</RA_OF_ASC_NODE><ARG_OF_PERICENTER>316.1409</ARG_OF_PERICENTER><MEAN_ANOMALY>43.9107</MEAN_ANOMALY></meanElements><tleParameters><EPHEMERIS_TYPE>0</EPHEMERIS_TYPE><CLASSIFICATION_TYPE>U</CLASSIFICATION_TYPE><NORAD_CAT_ID>65966</NORAD_CAT_ID><ELEMENT_SET_NO>999</ELEMENT_SET_NO><REV_AT_EPOCH>831</REV_AT_EPOCH><BSTAR>.13965E-2</BSTAR><MEAN_MOTION_DOT>.49268E-3</MEAN_MOTION_DOT><MEAN_MOTION_DDOT>0</MEAN_MOTION_DDOT></tleParameters></data></segment></body></omm>
<omm id="CCSDS_OMM_VERS" version="2.0">
<header><CREATION_DATE/><ORIGINATOR/></header><body><segment><metadata><OBJECT_NAME>KUIPER-00146</OBJECT_NAME><OBJECT_ID>2025-228W</OBJECT_ID><CENTER_NAME>EARTH</CENTER_NAME><REF_FRAME>TEME</REF_FRAME><TIME_SYSTEM>UTC</TIME_SYSTEM><MEAN_ELEMENT_THEORY>SGP4</MEAN_ELEMENT_THEORY></metadata><data><meanElements><EPOCH>2025-11-29T01:14:39.973056</EPOCH><MEAN_MOTION>15.35221334</MEAN_MOTION><ECCENTRICITY>.0006393</ECCENTRICITY><INCLINATION>51.8797</INCLINATION><RA_OF_ASC_NODE>86.5665</RA_OF_ASC_NODE><ARG_OF_PERICENTER>318.1178</ARG_OF_PERICENTER><MEAN_ANOMALY>41.9318</MEAN_ANOMALY></meanElements><tleParameters><EPHEMERIS_TYPE>0</EPHEMERIS_TYPE><CLASSIFICATION_TYPE>U</CLASSIFICATION_TYPE><NORAD_CAT_ID>65967</NORAD_CAT_ID><ELEMENT_SET_NO>999</ELEMENT_SET_NO><REV_AT_EPOCH>831</REV_AT_EPOCH><BSTAR>.59039E-3</BSTAR><MEAN_MOTION_DOT>.20179E-3</MEAN_MOTION_DOT><MEAN_MOTION_DDOT>0</MEAN_MOTION_DDOT></tleParameters></data></segment></body></omm>
<omm id="CCSDS_OMM_VERS" version="2.0">
<header><CREATION_DATE/><ORIGINATOR/></header><body><segment><metadata><OBJECT_NAME>KUIPER-00149</OBJECT_NAME><OBJECT_ID>2025-228X</OBJECT_ID><CENTER_NAME>EARTH</CENTER_NAME><REF_FRAME>TEME</REF_FRAME><TIME_SYSTEM>UTC</TIME_SYSTEM><MEAN_ELEMENT_THEORY>SGP4</MEAN_ELEMENT_THEORY></metadata><data><meanElements><EPOCH>2025-11-29T00:59:57.662304</EPOCH><MEAN_MOTION>15.35840308</MEAN_MOTION><ECCENTRICITY>.0005574</ECCENTRICITY><INCLINATION>51.8784</INCLINATION><RA_OF_ASC_NODE>86.4938</RA_OF_ASC_NODE><ARG_OF_PERICENTER>311.1728</ARG_OF_PERICENTER><MEAN_ANOMALY>48.8777</MEAN_ANOMALY></meanElements><tleParameters><EPHEMERIS_TYPE>0</EPHEMERIS_TYPE><CLASSIFICATION_TYPE>U</CLASSIFICATION_TYPE><NORAD_CAT_ID>65968</NORAD_CAT_ID><ELEMENT_SET_NO>999</ELEMENT_SET_NO><REV_AT_EPOCH>831</REV_AT_EPOCH><BSTAR>.10963E-2</BSTAR><MEAN_MOTION_DOT>.38652E-3</MEAN_MOTION_DOT><MEAN_MOTION_DDOT>0</MEAN_MOTION_DDOT></tleParameters></data></segment></body></omm>
<omm id="CCSDS_OMM_VERS" version="2.0">
<header><CREATION_DATE/><ORIGINATOR/></header><body><segment><metadata><OBJECT_NAME>KUIPER-00154</OBJECT_NAME><OBJECT_ID>2025-228Y</OBJECT_ID><CENTER_NAME>EARTH</CENTER_NAME><REF_FRAME>TEME</REF_FRAME><TIME_SYSTEM>UTC</TIME_SYSTEM><MEAN_ELEMENT_THEORY>SGP4</MEAN_ELEMENT_THEORY></metadata><data><meanElements><EPOCH>2025-11-29T01:03:06.180192</EPOCH><MEAN_MOTION>15.35432292</MEAN_MOTION><ECCENTRICITY>.0005618</ECCENTRICITY><INCLINATION>51.8775</INCLINATION><RA_OF_ASC_NODE>86.5077</RA_OF_ASC_NODE><ARG_OF_PERICENTER>313.3156</ARG_OF_PERICENTER><MEAN_ANOMALY>46.7362</MEAN_ANOMALY></meanElements><tleParameters><EPHEMERIS_TYPE>0</EPHEMERIS_TYPE><CLASSIFICATION_TYPE>U</CLASSIFICATION_TYPE><NORAD_CAT_ID>65969</NORAD_CAT_ID><ELEMENT_SET_NO>999</ELEMENT_SET_NO><REV_AT_EPOCH>831</REV_AT_EPOCH><BSTAR>.11422E-2</BSTAR><MEAN_MOTION_DOT>.39767E-3</MEAN_MOTION_DOT><MEAN_MOTION_DDOT>0</MEAN_MOTION_DDOT></tleParameters></data></segment></body></omm>

</ndm>
