KUIPER-00136            
1 65962U 25228R   25333.04184282  .00044276  00000+0  12541-2 0  9999
2 65962  51.8805  86.4991 0006454 303.5220  56.5150 15.35816322  8318
KUIPER-00137            
1 65963U 25228S   25333.05502949  .00031314  00000+0  91112-3 0  9996
2 65963  51.8788  86.5857 0005668 327.7981  32.2658 15.35143168  8314
KUIPER-00138            
1 65964U 25228T   25333.05891760  .00046449  00000+0  13411-2 0  9999
2 65964  51.8787  86.6033 0007455 326.1794  33.8715 15.35189246  8310
KUIPER-00140            
1 65965U 25228U   25332.60703355  .00041770  00000+0  12289-2 0  9996
2 65965  51.8795  88.8291 0006904 324.7976  35.2553 15.34648146  8240
KUIPER-00141            
1 65966U 25228V   25333.04550189  .00049268  00000+0  13965-2 0  9993
2 65966  51.8793  86.5148 0005906 316.1409  43.9107 15.35750074  8316
KUIPER-00146            
1 65967U 25228W   25333.05185154  .00020179  00000+0  59039-3 0  9994
2 65967  51.8797  86.5665 0006393 318.1178  41.9318 15.35221334  8315
KUIPER-00149            
1 65968U 25228X   25333.04163961  .00038652  00000+0  10963-2 0  9993
2 65968  51.8784  86.4938 0005574 311.1728  48.8777 15.35840308  8311
KUIPER-00154            
1 65969U 25228Y   25333.04382153  .00039767  00000+0  11422-2 0  9999
2 65969  51.8775  86.5077 0005618 313.3156  46.7362 15.35432292  8311
